{
    "week": 294,
    "satellites": [
        {
            "Name": "GSAT0208 (GALILEO 11)",
            "Line1": "1 41175U 15079B   24332.61891283  .00000053  00000+0  00000+0 0  9998",
            "Line2": "2 41175  55.5029 116.8208 0001395   3.5042 356.4726  1.70474372 55530",
            "SatelliteNumber": "41175",
            "Classification": "U",
            "LaunchYear": "15",
            "LaunchNumber": "079",
            "PieceOfLaunch": "B",
            "EpochYear": "24",
            "EpochDay": 332.61891283,
            "FirstDerivativeMeanMotion": 5.3e-07,
            "SecondDerivativeMeanMotion": "00000+0",
            "BSTAR": "00000+0",
            "SetNumber": "999",
            "Inclination": 55.5029,
            "RAAN": 116.8208,
            "Eccentricity": 0.0001395,
            "ArgumentOfPerigee": 3.5042,
            "MeanAnomaly": 356.4726,
            "MeanMotion": 1.70474372,
            "RevolutionNumber": "5553"
        },
        {
            "Name": "GSAT0211 (GALILEO 14)",
            "Line1": "1 41549U 16030A   24330.39580025 -.00000018  00000+0  00000+0 0  9995",
            "Line2": "2 41549  55.2955 237.3420 0003802 359.6101   0.4317  1.70473034 52972",
            "SatelliteNumber": "41549",
            "Classification": "U",
            "LaunchYear": "16",
            "LaunchNumber": "030",
            "PieceOfLaunch": "A",
            "EpochYear": "24",
            "EpochDay": 330.39580025,
            "FirstDerivativeMeanMotion": -1.8e-07,
            "SecondDerivativeMeanMotion": "00000+0",
            "BSTAR": "00000+0",
            "SetNumber": "999",
            "Inclination": 55.2955,
            "RAAN": 237.342,
            "Eccentricity": 0.0003802,
            "ArgumentOfPerigee": 359.6101,
            "MeanAnomaly": 0.4317,
            "MeanMotion": 1.70473034,
            "RevolutionNumber": "5297"
        },
        {
            "Name": "GSAT0210 (GALILEO 13)",
            "Line1": "1 41550U 16030B   24333.00011312  .00000003  00000+0  00000+0 0  9999",
            "Line2": "2 41550  55.2932 237.2687 0001878 246.6427 113.3911  1.70473632 53014",
            "SatelliteNumber": "41550",
            "Classification": "U",
            "LaunchYear": "16",
            "LaunchNumber": "030",
            "PieceOfLaunch": "B",
            "EpochYear": "24",
            "EpochDay": 333.00011312,
            "FirstDerivativeMeanMotion": 3e-08,
            "SecondDerivativeMeanMotion": "00000+0",
            "BSTAR": "00000+0",
            "SetNumber": "999",
            "Inclination": 55.2932,
            "RAAN": 237.2687,
            "Eccentricity": 0.0001878,
            "ArgumentOfPerigee": 246.6427,
            "MeanAnomaly": 113.3911,
            "MeanMotion": 1.70473632,
            "RevolutionNumber": "5301"
        },
        {
            "Name": "GSAT0207 (GALILEO 15)",
            "Line1": "1 41859U 16069A   24332.69256333  .00000052  00000+0  00000+0 0  9995",
            "Line2": "2 41859  55.1702 116.7828 0001767 311.8311  48.1294  1.70474473 49740",
            "SatelliteNumber": "41859",
            "Classification": "U",
            "LaunchYear": "16",
            "LaunchNumber": "069",
            "PieceOfLaunch": "A",
            "EpochYear": "24",
            "EpochDay": 332.69256333,
            "FirstDerivativeMeanMotion": 5.2e-07,
            "SecondDerivativeMeanMotion": "00000+0",
            "BSTAR": "00000+0",
            "SetNumber": "999",
            "Inclination": 55.1702,
            "RAAN": 116.7828,
            "Eccentricity": 0.0001767,
            "ArgumentOfPerigee": 311.8311,
            "MeanAnomaly": 48.1294,
            "MeanMotion": 1.70474473,
            "RevolutionNumber": "4974"
        },
        {
            "Name": "GSAT0212 (GALILEO 16)",
            "Line1": "1 41860U 16069B   24332.54668277  .00000052  00000+0  00000+0 0  9995",
            "Line2": "2 41860  55.1689 116.7828 0001711  34.1442 325.8430  1.70474552 49997",
            "SatelliteNumber": "41860",
            "Classification": "U",
            "LaunchYear": "16",
            "LaunchNumber": "069",
            "PieceOfLaunch": "B",
            "EpochYear": "24",
            "EpochDay": 332.54668277,
            "FirstDerivativeMeanMotion": 5.2e-07,
            "SecondDerivativeMeanMotion": "00000+0",
            "BSTAR": "00000+0",
            "SetNumber": "999",
            "Inclination": 55.1689,
            "RAAN": 116.7828,
            "Eccentricity": 0.0001711,
            "ArgumentOfPerigee": 34.1442,
            "MeanAnomaly": 325.843,
            "MeanMotion": 1.70474552,
            "RevolutionNumber": "4999"
        },
        {
            "Name": "GSAT0213 (GALILEO 17)",
            "Line1": "1 41861U 16069C   24332.91496320  .00000052  00000+0  00000+0 0  9995",
            "Line2": "2 41861  55.1697 116.7797 0002026 265.4162  94.5352  1.70474884 49867",
            "SatelliteNumber": "41861",
            "Classification": "U",
            "LaunchYear": "16",
            "LaunchNumber": "069",
            "PieceOfLaunch": "C",
            "EpochYear": "24",
            "EpochDay": 332.9149632,
            "FirstDerivativeMeanMotion": 5.2e-07,
            "SecondDerivativeMeanMotion": "00000+0",
            "BSTAR": "00000+0",
            "SetNumber": "999",
            "Inclination": 55.1697,
            "RAAN": 116.7797,
            "Eccentricity": 0.0002026,
            "ArgumentOfPerigee": 265.4162,
            "MeanAnomaly": 94.5352,
            "MeanMotion": 1.70474884,
            "RevolutionNumber": "4986"
        },
        {
            "Name": "GSAT0214 (GALILEO 18)",
            "Line1": "1 41862U 16069D   24328.36775788  .00000051  00000+0  00000+0 0  9997",
            "Line2": "2 41862  55.1663 116.8988 0001002 261.4215  98.5510  1.70474731 49919",
            "SatelliteNumber": "41862",
            "Classification": "U",
            "LaunchYear": "16",
            "LaunchNumber": "069",
            "PieceOfLaunch": "D",
            "EpochYear": "24",
            "EpochDay": 328.36775788,
            "FirstDerivativeMeanMotion": 5.1e-07,
            "SecondDerivativeMeanMotion": "00000+0",
            "BSTAR": "00000+0",
            "SetNumber": "999",
            "Inclination": 55.1663,
            "RAAN": 116.8988,
            "Eccentricity": 0.0001002,
            "ArgumentOfPerigee": 261.4215,
            "MeanAnomaly": 98.551,
            "MeanMotion": 1.70474731,
            "RevolutionNumber": "4991"
        },
        {
            "Name": "GSAT0215 (GALILEO 19)",
            "Line1": "1 43055U 17079A   24332.96367047  .00000002  00000+0  00000+0 0  9997",
            "Line2": "2 43055  55.2710 237.0910 0001527 318.3517  41.6904  1.70473830 43334",
            "SatelliteNumber": "43055",
            "Classification": "U",
            "LaunchYear": "17",
            "LaunchNumber": "079",
            "PieceOfLaunch": "A",
            "EpochYear": "24",
            "EpochDay": 332.96367047,
            "FirstDerivativeMeanMotion": 2e-08,
            "SecondDerivativeMeanMotion": "00000+0",
            "BSTAR": "00000+0",
            "SetNumber": "999",
            "Inclination": 55.271,
            "RAAN": 237.091,
            "Eccentricity": 0.0001527,
            "ArgumentOfPerigee": 318.3517,
            "MeanAnomaly": 41.6904,
            "MeanMotion": 1.7047383,
            "RevolutionNumber": "4333"
        },
        {
            "Name": "GSAT0216 (GALILEO 20)",
            "Line1": "1 43056U 17079B   24333.25525052  .00000005  00000+0  00000+0 0  9996",
            "Line2": "2 43056  55.2714 237.0830 0002884 307.7304  52.2992  1.70473966 43327",
            "SatelliteNumber": "43056",
            "Classification": "U",
            "LaunchYear": "17",
            "LaunchNumber": "079",
            "PieceOfLaunch": "B",
            "EpochYear": "24",
            "EpochDay": 333.25525052,
            "FirstDerivativeMeanMotion": 5e-08,
            "SecondDerivativeMeanMotion": "00000+0",
            "BSTAR": "00000+0",
            "SetNumber": "999",
            "Inclination": 55.2714,
            "RAAN": 237.083,
            "Eccentricity": 0.0002884,
            "ArgumentOfPerigee": 307.7304,
            "MeanAnomaly": 52.2992,
            "MeanMotion": 1.70473966,
            "RevolutionNumber": "4332"
        },
        {
            "Name": "GSAT0217 (GALILEO 21)",
            "Line1": "1 43057U 17079C   24331.71600201 -.00000008  00000+0  00000+0 0  9990",
            "Line2": "2 43057  55.2703 237.1237 0003195 320.6964  39.3273  1.70473986 43319",
            "SatelliteNumber": "43057",
            "Classification": "U",
            "LaunchYear": "17",
            "LaunchNumber": "079",
            "PieceOfLaunch": "C",
            "EpochYear": "24",
            "EpochDay": 331.71600201,
            "FirstDerivativeMeanMotion": -8e-08,
            "SecondDerivativeMeanMotion": "00000+0",
            "BSTAR": "00000+0",
            "SetNumber": "999",
            "Inclination": 55.2703,
            "RAAN": 237.1237,
            "Eccentricity": 0.0003195,
            "ArgumentOfPerigee": 320.6964,
            "MeanAnomaly": 39.3273,
            "MeanMotion": 1.70473986,
            "RevolutionNumber": "4331"
        }
    ]
}